0 DELTA 2 DEB
1 26967U 93017E   13279.92673385  .00024225  00000-0  64533-3 0  8049
2 26967 034.9062 115.6702 4550616 102.8479 016.6829 06.51354150297714
0 DELTA 2 DEB
1 26967U 93017E   13280.84249703  .00023420  00000-0  61932-3 0  8052
2 26967 034.9144 114.4294 4550642 104.6946 004.0675 06.51393982297778
0 DELTA 2 DEB
1 26967U 93017E   13286.82758589  .00025827  00000-0  71150-3 0  8060
2 26967 034.9111 106.1706 4547426 116.6782 002.7241 06.51712807298164
0 DELTA 2 DEB
1 26967U 93017E   13288.82169221  .00027108  00000-0  72293-3 0  8075
2 26967 034.9293 103.3790 4547872 120.5596 001.7073 06.51828680298292
0 DELTA 2 DEB
1 26967U 93017E   13292.64725737  .00028621  00000-0  76234-3 0  8081
2 26967 034.9261 098.1065 4546647 128.1058 340.2770 06.52050461298547
0 DELTA 2 DEB
1 26967U 93017E   13292.80923618  .00028654  00000-0  76336-3 0  8097
2 26967 034.9261 097.8828 4546587 128.4278 000.5074 06.52059993298553
